{
    "links": {
        "self": "http://www.neowsapp.com/rest/v1/neo/54053950?api_key=iIulBulltgU6a56xZRHN4H3l9WmuAYTsLGpBGhQ2"
    },
    "id": "54053950",
    "neo_reference_id": "54053950",
    "name": "(2020 RV4)",
    "designation": "2020 RV4",
    "nasa_jpl_url": "http://ssd.jpl.nasa.gov/sbdb.cgi?sstr=54053950",
    "absolute_magnitude_h": 25.932,
    "estimated_diameter": {
        "kilometers": {
            "estimated_diameter_min": 0.0173043375,
            "estimated_diameter_max": 0.0386936749
        },
        "meters": {
            "estimated_diameter_min": 17.3043374884,
            "estimated_diameter_max": 38.6936749297
        },
        "miles": {
            "estimated_diameter_min": 0.0107524135,
            "estimated_diameter_max": 0.0240431275
        },
        "feet": {
            "estimated_diameter_min": 56.7727626054,
            "estimated_diameter_max": 126.9477564562
        }
    },
    "is_potentially_hazardous_asteroid": false,
    "close_approach_data": [
        {
            "close_approach_date": "2020-08-21",
            "close_approach_date_full": "2020-Aug-21 04:41",
            "epoch_date_close_approach": 1597984860000,
            "relative_velocity": {
                "kilometers_per_second": "9.6095945745",
                "kilometers_per_hour": "34594.5404681735",
                "miles_per_hour": "21495.7021036826"
            },
            "miss_distance": {
                "astronomical": "0.0523611995",
                "lunar": "20.3685066055",
                "kilometers": "7833123.915845065",
                "miles": "4867277.502649297"
            },
            "orbiting_body": "Earth"
        }
    ],
    "orbital_data": {
        "orbit_id": "1",
        "orbit_determination_date": "2020-09-14 03:42:12",
        "first_observation_date": "2020-09-11",
        "last_observation_date": "2020-09-13",
        "data_arc_in_days": 2,
        "observations_used": 15,
        "orbit_uncertainty": "8",
        "minimum_orbit_intersection": ".0389809",
        "jupiter_tisserand_invariant": "3.215",
        "epoch_osculation": "2459105.5",
        "eccentricity": ".5913861410473797",
        "semi_major_axis": "2.472472602657834",
        "inclination": "2.764622877108801",
        "ascending_node_longitude": "8.197995795496936",
        "orbital_period": "1420.023915680078",
        "perihelion_distance": "1.010286571326646",
        "perihelion_argument": "294.8766669879312",
        "aphelion_distance": "3.934658633989021",
        "perihelion_time": "2459062.874738645948",
        "mean_anomaly": "10.80622228824199",
        "mean_motion": ".2535168570225022",
        "equinox": "J2000",
        "orbit_class": {
            "orbit_class_type": "APO",
            "orbit_class_description": "Near-Earth asteroid orbits which cross the Earth’s orbit similar to that of 1862 Apollo",
            "orbit_class_range": "a (semi-major axis) > 1.0 AU; q (perihelion) < 1.017 AU"
        }
    },
    "is_sentry_object": false
}